[{"OBJECT_NAME":"LEMUR-2-GREENBERG","OBJECT_ID":"2017-042N","EPOCH":"2026-03-09T11:05:17.256192","MEAN_MOTION":15.27971352,"ECCENTRICITY":0.00091572,"INCLINATION":97.3781,"RA_OF_ASC_NODE":249.8007,"ARG_OF_PERICENTER":4.0119,"MEAN_ANOMALY":356.1192,"EPHEMERIS_TYPE":0,"CLASSIFICATION_TYPE":"U","NORAD_CAT_ID":42837,"ELEMENT_SET_NO":999,"REV_AT_EPOCH":47314,"BSTAR":0.00072539172,"MEAN_MOTION_DOT":0.00019778,"MEAN_MOTION_DDOT":0},{"OBJECT_NAME":"STARLINK-35960","OBJECT_ID":"2025-265R","EPOCH":"2026-03-09T22:15:31.870080","MEAN_MOTION":15.2760493,"ECCENTRICITY":0.00010442,"INCLINATION":43.0004,"RA_OF_ASC_NODE":276.261,"ARG_OF_PERICENTER":312.8157,"MEAN_ANOMALY":47.2607,"EPHEMERIS_TYPE":0,"CLASSIFICATION_TYPE":"U","NORAD_CAT_ID":66531,"ELEMENT_SET_NO":999,"REV_AT_EPOCH":1715,"BSTAR":0.0011443107,"MEAN_MOTION_DOT":0.00031385,"MEAN_MOTION_DDOT":0}]
